SatCatId,ObjectName,LaunchYear,OrbitalPeriod,LaunchMass,StatusCode,Inclination,Status,UcsData,OrbitClassEstimated,LaunchSiteCountry,Owner,UseType,Purpose,LaunchVehicleClass,TLE1,TLE2,MeanMotion,Eccentricity,OrbitClass
45753,STARLINK-1476,2020,95.59,227.0,+,53.05,Active,1,LEO,USA,USA,Commercial,Communications,Falcon,1 45753U 20038Z   24253.40912329  .00018804  00000+0  12764-2 0  9995,2 45753  53.0531 148.9652 0001206 110.8671 249.2447 15.06444260234149,15.0644426,0.0001206,LEO
45754,STARLINK-1477,2020,95.59,227.0,+,53.05,Active,1,LEO,USA,USA,Commercial,Communications,Falcon,1 45754U 20038AA  24253.01473761  .00037718  00000+0  25340-2 0  9994,2 45754  53.0528 150.7384 0001185 107.2490 252.8629 15.06451637234085,15.06451637,0.0001185,LEO
45755,STARLINK-1478,2020,95.59,227.0,+,53.05,Active,1,LEO,USA,USA,Commercial,Communications,Falcon,1 45755U 20038AB  24253.09951247  .00045264  00000+0  30333-2 0  9996,2 45755  53.0527 150.3562 0001287 101.3751 258.7383 15.06460189234081,15.06460189,0.0001287,LEO
45756,STARLINK-1484,2020,94.89,227.0,P,53.05,Active,1,LEO,USA,USA,Commercial,Communications,Falcon,1 45756U 20038AC  24253.42469025  .00034795  00000+0  17173-2 0  9996,2 45756  53.0507 139.7949 0001571 104.9494 255.1674 15.17598950234263,15.1759895,0.0001571,LEO
45757,STARLINK-1486,2020,93.19,227.0,P,53.07,Active,1,LEO,USA,USA,Commercial,Communications,Falcon,1 45757U 20038AD  24253.57707072  .00058141  00000+0  11960-2 0  9999,2 45757  53.0749  78.1548 0004828  81.9603 278.1951 15.45415974235165,15.45415974,0.0004828,LEO
45758,STARLINK-1487,2020,93.61,227.0,P,53.04,Active,1,LEO,USA,USA,Commercial,Communications,Falcon,1 45758U 20038AE  24253.22093731  .00049332  00000+0  12878-2 0  9993,2 45758  53.0358  78.4547 0003098 141.7057 218.4166 15.38339716235111,15.38339716,0.0003098,LEO
45759,STARLINK-1493,2020,95.59,227.0,+,53.05,Active,1,LEO,USA,USA,Commercial,Communications,Falcon,1 45759U 20038AF  24253.42018629  .00018001  00000+0  12231-2 0  9991,2 45759  53.0533 148.9180 0001211  74.2144 285.8978 15.06436708234139,15.06436708,0.0001211,LEO
45760,STARLINK-1494,2020,95.59,227.0,+,53.05,Active,1,LEO,USA,USA,Commercial,Communications,Falcon,1 45760U 20038AG  24253.42388381  .00011354  00000+0  77950-3 0  9992,2 45760  53.0528 148.8977 0001925  85.4268 274.6941 15.06417667234141,15.06417667,0.0001925,LEO
45762,STARLINK-1499,2020,92.78,227.0,P,53.01,Active,1,LEO,USA,USA,Commercial,Communications,Falcon,1 45762U 20038AJ  24253.58335648  .00157601  00000+0  24995-2 0  9995,2 45762  53.0056  53.2572 0002819 162.9765 107.3946 15.52348616236423,15.52348616,0.0002819,LEO
45764,STARLINK-1502,2020,95.59,227.0,+,53.05,Active,1,LEO,USA,USA,Commercial,Communications,Falcon,1 45764U 20038AL  24253.45337299  .00001167  00000+0  97224-4 0  9999,2 45764  53.0536 148.7655 0002386  87.1142 273.0120 15.06403380234158,15.0640338,0.0002386,LEO
45766,STARLINK-1509,2020,92.45,227.0,P,53.04,Active,1,LEO,USA,USA,Commercial,Communications,Falcon,1 45766U 20038AN  24253.58335648  .00172878  00000+0  22238-2 0  9990,2 45766  53.0390  46.0581 0004057 240.5013  24.0529 15.57990971  5881,15.57990971,0.0004057,LEO
45767,STARLINK-1511,2020,93.12,227.0,P,53.04,Active,1,LEO,USA,USA,Commercial,Communications,Falcon,1 45767U 20038AP  24253.58335648  .00196722  00000+0  37799-2 0  9993,2 45767  53.0455 110.7542 0003887 132.0504 353.7276 15.46734205235622,15.46734205,0.0003887,LEO
45769,STARLINK-1459,2020,91.63,227.0,P,53.05,Active,1,LEO,USA,USA,Commercial,Communications,Falcon,1 45769U 20038AR  24253.58335648  .00233029  00000+0  17157-2 0  9993,2 45769  53.0519 160.7764 0000676 167.9906  51.9341 15.71829961  5843,15.71829961,6.76e-05,LEO
45770,STARLINK-1462,2020,91.85,227.0,P,53.04,Active,1,LEO,USA,USA,Commercial,Communications,Falcon,1 45770U 20038AS  24253.58335648  .00297020  00000+0  24957-2 0  9992,2 45770  53.0425  79.0531 0002172 101.3431  36.8302 15.68447813  5918,15.68447813,0.0002172,LEO
45771,STARLINK-1463,2020,95.59,227.0,+,53.05,Active,1,LEO,USA,USA,Commercial,Communications,Falcon,1 45771U 20038AT  24253.37043535  .00002753  00000+0  20362-3 0  9995,2 45771  53.0524 129.1405 0000929  91.5007 268.6089 15.06403063234409,15.06403063,9.29e-05,LEO
45772,STARLINK-1470,2020,95.59,227.0,+,53.05,Active,1,LEO,USA,USA,Commercial,Communications,Falcon,1 45772U 20038AU  24253.35937750 -.00000561  00000+0 -18789-4 0  9993,2 45772  53.0534 129.1902 0001270  80.4430 279.6702 15.06406198234417,15.06406198,0.000127,LEO
45773,STARLINK-1482,2020,95.59,227.0,+,53.05,Active,1,LEO,USA,USA,Commercial,Communications,Falcon,1 45773U 20038AV  24252.95392563  .00032434  00000+0  21838-2 0  9995,2 45773  53.0534 131.0119 0001333  68.1738 291.9392 15.06442255235310,15.06442255,0.0001333,LEO
45774,STARLINK-1485,2020,95.59,227.0,+,53.05,Active,1,LEO,USA,USA,Commercial,Communications,Falcon,1 45774U 20038AW  24253.38886448  .00010708  00000+0  73624-3 0  9995,2 45774  53.0533 129.0565 0001505  88.8582 271.2579 15.06420058234414,15.06420058,0.0001505,LEO
45775,STARLINK-1488,2020,92.15,227.0,P,53.06,Active,1,LEO,USA,USA,Commercial,Communications,Falcon,1 45775U 20038AX  24253.58335648  .00200991  00000+0  21174-2 0  9996,2 45775  53.0643  36.9406 0002224 331.6639 215.6414 15.63109020236719,15.6310902,0.0002224,LEO
45776,STARLINK-1489,2020,94.63,227.0,P,53.06,Active,1,LEO,USA,USA,Commercial,Communications,Falcon,1 45776U 20038AY  24253.32690963  .00035624  00000+0  15539-2 0  9990,2 45776  53.0560 118.1143 0004456 143.7498 216.3801 15.21846971234570,15.21846971,0.0004456,LEO
45777,STARLINK-1490,2020,93.31,227.0,P,53.03,Active,1,LEO,USA,USA,Commercial,Communications,Falcon,1 45777U 20038AZ  24253.00001157  .00083818  00000+0  18416-2 0  9992,2 45777  53.0278  70.6041 0002571 119.2032 317.2937 15.43315018  5758,15.43315018,0.0002571,LEO
45778,STARLINK-1491,2020,95.54,227.0,+,53.05,Active,1,LEO,USA,USA,Commercial,Communications,Falcon,1 45778U 20038BA  24253.37052768  .00002085  00000+0  15555-3 0  9996,2 45778  53.0542 129.0639 0001035 103.9818 256.1286 15.07206126234404,15.07206126,0.0001035,LEO
45779,STARLINK-1492,2020,92.97,227.0,P,53.02,Active,1,LEO,USA,USA,Commercial,Communications,Falcon,1 45779U 20038BB  24253.58335648  .00081995  00000+0  14747-2 0  9999,2 45779  53.0215  35.4249 0001796 277.0858   4.6888 15.49153999  5966,15.49153999,0.0001796,LEO
45780,STARLINK-1496,2020,95.59,227.0,+,53.05,Active,1,LEO,USA,USA,Commercial,Communications,Falcon,1 45780U 20038BC  24253.38517787  .00007870  00000+0  54634-3 0  9995,2 45780  53.0530 129.0710 0001182  96.4651 263.6473 15.06418356234408,15.06418356,0.0001182,LEO
45781,STARLINK-1497,2020,95.59,227.0,+,53.05,Active,1,LEO,USA,USA,Commercial,Communications,Falcon,1 45781U 20038BD  24252.94654846  .00015999  00000+0  10896-2 0  9997,2 45781  53.0537 131.0449 0002000  91.7960 268.3258 15.06430362235279,15.06430362,0.0002,LEO
45782,STARLINK-1498,2020,92.75,227.0,P,53.04,Active,1,LEO,USA,USA,Commercial,Communications,Falcon,1 45782U 20038BE  24253.58335648  .00154231  00000+0  23921-2 0  9991,2 45782  53.0444  33.9845 0004485 310.8620 280.3331 15.52977693236714,15.52977693,0.0004485,LEO
45783,STARLINK-1505,2020,93.27,227.0,P,53.05,Active,1,LEO,USA,USA,Commercial,Communications,Falcon,1 45783U 20038BF  24253.58335648  .01066060  00000+0  19861-1 0  9992,2 45783  53.0496 124.5469 0001136 107.1723 191.7815 15.45841868235427,15.45841868,0.0001136,LEO
45784,STARLINK-1510,2020,95.36,227.0,+,53.05,Active,1,LEO,USA,USA,Commercial,Communications,Falcon,1 45784U 20038BG  24253.07070682  .00074353  00000+0  44749-2 0  9998,2 45784  53.0536 130.0115 0001925 176.0466 184.0540 15.10165960234375,15.1016596,0.0001925,LEO
45785,STARLINK-1512,2020,92.78,227.0,P,53.05,Active,1,LEO,USA,USA,Commercial,Communications,Falcon,1 45785U 20038BH  24253.04640288  .00078002  00000+0  12579-2 0  9992,2 45785  53.0501 113.0908 0003280 189.5806 170.5141 15.52249089234617,15.52249089,0.000328,LEO
45786,STARLINK-1513,2020,95.59,227.0,+,53.05,Active,1,LEO,USA,USA,Commercial,Communications,Falcon,1 45786U 20038BJ  24252.88387980  .00012818  00000+0  87745-3 0  9992,2 45786  53.0552 131.3285 0001051 104.8687 255.2418 15.06416342234341,15.06416342,0.0001051,LEO
45787,STARLINK-1517,2020,95.59,227.0,+,53.05,Active,1,LEO,USA,USA,Commercial,Communications,Falcon,1 45787U 20038BK  24253.35569082  .00012373  00000+0  84752-3 0  9992,2 45787  53.0533 129.2093 0002084  91.1207 269.0021 15.06423357234412,15.06423357,0.0002084,LEO
45789,SKYSAT-C16,2020,90.22,100.0,+,52.96,Active,1,LEO,USA,USA,Commercial,Earth Observation,Falcon,1 45789U 20038BM  24253.44666339  .00542905  13520-3  12082-2 0  9997,2 45789  52.9625 317.4412 0010687 350.1456   9.9359 15.97226340241766,15.9722634,0.0010687,LEO
45790,SKYSAT-C15,2020,90.84,100.0,+,52.97,Active,1,LEO,USA,USA,Commercial,Earth Observation,Falcon,1 45790U 20038BN  24253.49409079  .00315252  00000+0  12229-2 0  9991,2 45790  52.9687 340.0354 0008010 330.8744  29.1830 15.85769360241450,15.8576936,0.000801,LEO
45794,GAOFEN-9 03,2020,94.51,1000.0,+,97.47,Active,1,LEO,PRC,China,Government,Earth Observation,Long March,1 45794U 20039A   24253.59811833  .00023751  00000+0  98684-3 0  9992,2 45794  97.4686  13.9839 0016000 190.9637 169.1254 15.23692675235280,15.23692675,0.0016,LEO
45795,ZHEDA PIXING 3A,2020,91.29,12.0,+,97.47,Active,1,LEO,PRC,China,Civil,Technology Development,Long March,1 45795U 20039B   24253.44119262  .00228508  00000+0  13043-2 0  9996,2 45795  97.4716  37.8827 0005072 199.0720 161.0357 15.78250294236785,15.78250294,0.0005072,LEO
45807,BEIDOU-3 G3,2020,1436.2,800.0,+,0.92,Active,1,GSO,PRC,China,Government/Military,Navigation (Global or Regional Positioning),Long March,1 45807U 20040A   24246.66437307 -.00000363  00000+0  00000+0 0  9995,2 45807   0.9171  50.3777 0002078 342.9675 298.4796  1.00264318 15529,1.00264318,0.0002078,GEO
